{
    "links": {
        "self": "http://www.neowsapp.com/rest/v1/neo/3363722?api_key=iIulBulltgU6a56xZRHN4H3l9WmuAYTsLGpBGhQ2"
    },
    "id": "3363722",
    "neo_reference_id": "3363722",
    "name": "(2006 XV4)",
    "designation": "2006 XV4",
    "nasa_jpl_url": "http://ssd.jpl.nasa.gov/sbdb.cgi?sstr=3363722",
    "absolute_magnitude_h": 24.9,
    "estimated_diameter": {
        "kilometers": {
            "estimated_diameter_min": 0.0278326768,
            "estimated_diameter_max": 0.0622357573
        },
        "meters": {
            "estimated_diameter_min": 27.8326768072,
            "estimated_diameter_max": 62.2357573367
        },
        "miles": {
            "estimated_diameter_min": 0.0172944182,
            "estimated_diameter_max": 0.0386714948
        },
        "feet": {
            "estimated_diameter_min": 91.3145593761,
            "estimated_diameter_max": 204.1855621004
        }
    },
    "is_potentially_hazardous_asteroid": false,
    "close_approach_data": [
        {
            "close_approach_date": "2006-12-12",
            "close_approach_date_full": "2006-Dec-12 05:18",
            "epoch_date_close_approach": 1165900680000,
            "relative_velocity": {
                "kilometers_per_second": "9.629852945",
                "kilometers_per_hour": "34667.4706021062",
                "miles_per_hour": "21541.0180527365"
            },
            "miss_distance": {
                "astronomical": "0.013393911",
                "lunar": "5.210231379",
                "kilometers": "2003700.55656957",
                "miles": "1245041.792497266"
            },
            "orbiting_body": "Earth"
        }
    ],
    "orbital_data": {
        "orbit_id": "12",
        "orbit_determination_date": "2017-04-06 09:07:20",
        "first_observation_date": "2006-12-13",
        "last_observation_date": "2006-12-27",
        "data_arc_in_days": 14,
        "observations_used": 29,
        "orbit_uncertainty": "8",
        "minimum_orbit_intersection": ".00431726",
        "jupiter_tisserand_invariant": "3.107",
        "epoch_osculation": "2454091.5",
        "eccentricity": ".6256865956831186",
        "semi_major_axis": "2.590596203863819",
        "inclination": "3.985289666555862",
        "ascending_node_longitude": "259.132551310641",
        "orbital_period": "1522.993374643986",
        "perihelion_distance": ".969694884278656",
        "perihelion_argument": "159.3756720422114",
        "aphelion_distance": "4.211497523448982",
        "perihelion_time": "2454065.531419926253",
        "mean_anomaly": "6.138364737623537",
        "mean_motion": ".2363766028096828",
        "equinox": "J2000",
        "orbit_class": {
            "orbit_class_type": "APO",
            "orbit_class_description": "Near-Earth asteroid orbits which cross the Earth’s orbit similar to that of 1862 Apollo",
            "orbit_class_range": "a (semi-major axis) > 1.0 AU; q (perihelion) < 1.017 AU"
        }
    },
    "is_sentry_object": false
}